[{"OBJECT_NAME":"STARLINK-31431","OBJECT_ID":"2024-036E","EPOCH":"2026-03-09T07:41:32.917632","MEAN_MOTION":15.30193239,"ECCENTRICITY":0.00010053,"INCLINATION":53.1602,"RA_OF_ASC_NODE":80.0625,"ARG_OF_PERICENTER":85.4034,"MEAN_ANOMALY":274.7081,"EPHEMERIS_TYPE":0,"CLASSIFICATION_TYPE":"U","NORAD_CAT_ID":59002,"ELEMENT_SET_NO":999,"REV_AT_EPOCH":11526,"BSTAR":1.0312127e-5,"MEAN_MOTION_DOT":-5.4e-7,"MEAN_MOTION_DDOT":0},{"OBJECT_NAME":"CZ-6A DEB","OBJECT_ID":"2024-140RH","EPOCH":"2026-03-09T12:32:13.567200","MEAN_MOTION":15.23024459,"ECCENTRICITY":0.01073082,"INCLINATION":88.6757,"RA_OF_ASC_NODE":253.1302,"ARG_OF_PERICENTER":74.0491,"MEAN_ANOMALY":287.2547,"EPHEMERIS_TYPE":0,"CLASSIFICATION_TYPE":"U","NORAD_CAT_ID":61163,"ELEMENT_SET_NO":999,"REV_AT_EPOCH":8457,"BSTAR":0.0019108924,"MEAN_MOTION_DOT":0.00053105,"MEAN_MOTION_DDOT":0}]
